0 OKEAN O
1 25860U 99039A   13282.78410644  .00000445  00000-0  74079-4 0   671
2 25860 098.0063 243.7948 0002034 115.7008 304.2900 14.74717937765249
0 OKEAN O
1 25860U 99039A   13284.07308912  .00000587  00000-0  95422-4 0   682
2 25860 098.0065 245.0691 0002052 114.2868 304.7571 14.74719395765439
0 OKEAN O
1 25860U 99039A   13285.44775035  .00000433  00000-0  72359-4 0   693
2 25860 098.0067 246.4281 0002118 113.1466 039.5461 14.74721456765630
0 OKEAN O
1 25860U 99039A   13286.46468293  .00000478  00000-0  79045-4 0   701
2 25860 098.0070 247.4334 0002134 111.9051 036.4163 14.74722326765786
0 OKEAN O
1 25860U 99039A   13287.47539547  .00000567  00000-0  92399-4 0   711
2 25860 098.0073 248.4325 0002113 111.0652 359.8873 14.74723412765939
0 OKEAN O
1 25860U 99039A   13288.49306707  .00000817  00000-0  12981-3 0   721
2 25860 098.0076 249.4386 0002116 110.0495 000.4621 14.74725868766081
0 OKEAN O
1 25860U 99039A   13289.83960078  .00000672  00000-0  10812-3 0   738
2 25860 098.0080 250.7698 0002138 108.9115 306.0452 14.74728735766281
0 OKEAN O
1 25860U 99039A   13290.92716949  .00000715  00000-0  11447-3 0   740
2 25860 098.0083 251.8451 0002142 107.6609 317.7334 14.74730154766446
0 OKEAN O
1 25860U 99039A   13292.00841056  .00000743  00000-0  11874-3 0   755
2 25860 098.0084 252.9142 0002119 106.9633 295.3025 14.74730847766604
0 OKEAN O
1 25860U 99039A   13293.09582170  .00000773  00000-0  12324-3 0   769
2 25860 098.0086 253.9895 0002156 105.9064 305.9709 14.74732672766762
0 OKEAN O
1 25860U 99039A   13294.47094051  .00000764  00000-0  12183-3 0   772
2 25860 098.0087 255.3494 0002146 104.3750 043.6502 14.74735656766962
0 OKEAN O
1 25860U 99039A   13295.81110918  .00000858  00000-0  13585-3 0   784
2 25860 098.0088 256.6748 0002119 102.7882 315.9597 14.74737334767164
